[{"OBJECT_NAME":"STARLINK-36840","OBJECT_ID":"2026-034A","EPOCH":"2026-03-13T14:06:44.629920","MEAN_MOTION":15.80985451,"ECCENTRICITY":0.00014617,"INCLINATION":53.158,"RA_OF_ASC_NODE":191.8214,"ARG_OF_PERICENTER":57.2111,"MEAN_ANOMALY":302.9053,"EPHEMERIS_TYPE":0,"CLASSIFICATION_TYPE":"U","NORAD_CAT_ID":67850,"ELEMENT_SET_NO":999,"REV_AT_EPOCH":455,"BSTAR":0.0015555529,"MEAN_MOTION_DOT":0.00319604,"MEAN_MOTION_DDOT":0},{"OBJECT_NAME":"STARLINK-36348","OBJECT_ID":"2026-034B","EPOCH":"2026-03-13T14:05:40.052832","MEAN_MOTION":15.80958264,"ECCENTRICITY":0.00018254,"INCLINATION":53.1586,"RA_OF_ASC_NODE":191.8166,"ARG_OF_PERICENTER":34.0703,"MEAN_ANOMALY":326.0437,"EPHEMERIS_TYPE":0,"CLASSIFICATION_TYPE":"U","NORAD_CAT_ID":67851,"ELEMENT_SET_NO":999,"REV_AT_EPOCH":455,"BSTAR":0.0012686327,"MEAN_MOTION_DOT":0.00258337,"MEAN_MOTION_DDOT":0},{"OBJECT_NAME":"STARLINK-36276","OBJECT_ID":"2026-034C","EPOCH":"2026-03-13T14:04:35.144832","MEAN_MOTION":15.80958735,"ECCENTRICITY":0.00020626,"INCLINATION":53.1587,"RA_OF_ASC_NODE":191.8109,"ARG_OF_PERICENTER":34.4078,"MEAN_ANOMALY":325.7078,"EPHEMERIS_TYPE":0,"CLASSIFICATION_TYPE":"U","NORAD_CAT_ID":67852,"ELEMENT_SET_NO":999,"REV_AT_EPOCH":455,"BSTAR":0.0011469803,"MEAN_MOTION_DOT":0.00232808,"MEAN_MOTION_DDOT":0},{"OBJECT_NAME":"STARLINK-36785","OBJECT_ID":"2026-034D","EPOCH":"2026-03-13T14:03:30.180672","MEAN_MOTION":15.80967855,"ECCENTRICITY":0.00015667,"INCLINATION":53.1586,"RA_OF_ASC_NODE":191.8063,"ARG_OF_PERICENTER":24.6405,"MEAN_ANOMALY":335.4692,"EPHEMERIS_TYPE":0,"CLASSIFICATION_TYPE":"U","NORAD_CAT_ID":67853,"ELEMENT_SET_NO":999,"REV_AT_EPOCH":455,"BSTAR":0.0012504284,"MEAN_MOTION_DOT":0.0025462,"MEAN_MOTION_DDOT":0},{"OBJECT_NAME":"STARLINK-36608","OBJECT_ID":"2026-034E","EPOCH":"2026-03-13T14:02:25.445472","MEAN_MOTION":15.809609,"ECCENTRICITY":0.00012811,"INCLINATION":53.1585,"RA_OF_ASC_NODE":191.8011,"ARG_OF_PERICENTER":60.1409,"MEAN_ANOMALY":299.9741,"EPHEMERIS_TYPE":0,"CLASSIFICATION_TYPE":"U","NORAD_CAT_ID":67854,"ELEMENT_SET_NO":999,"REV_AT_EPOCH":454,"BSTAR":0.0011498948,"MEAN_MOTION_DOT":0.00233437,"MEAN_MOTION_DDOT":0},{"OBJECT_NAME":"STARLINK-36838","OBJECT_ID":"2026-034F","EPOCH":"2026-03-13T14:01:20.788032","MEAN_MOTION":15.80950893,"ECCENTRICITY":0.00015363,"INCLINATION":53.1586,"RA_OF_ASC_NODE":191.7955,"ARG_OF_PERICENTER":51.8774,"MEAN_ANOMALY":308.2387,"EPHEMERIS_TYPE":0,"CLASSIFICATION_TYPE":"U","NORAD_CAT_ID":67855,"ELEMENT_SET_NO":999,"REV_AT_EPOCH":455,"BSTAR":0.0011470203,"MEAN_MOTION_DOT":0.00232726,"MEAN_MOTION_DDOT":0},{"OBJECT_NAME":"STARLINK-36843","OBJECT_ID":"2026-034G","EPOCH":"2026-03-13T13:59:11.063616","MEAN_MOTION":15.80951987,"ECCENTRICITY":0.00013775,"INCLINATION":53.1585,"RA_OF_ASC_NODE":191.7854,"ARG_OF_PERICENTER":61.2791,"MEAN_ANOMALY":298.8371,"EPHEMERIS_TYPE":0,"CLASSIFICATION_TYPE":"U","NORAD_CAT_ID":67856,"ELEMENT_SET_NO":999,"REV_AT_EPOCH":455,"BSTAR":0.001107901,"MEAN_MOTION_DOT":0.00224561,"MEAN_MOTION_DDOT":0},{"OBJECT_NAME":"STARLINK-36828","OBJECT_ID":"2026-034H","EPOCH":"2026-03-13T12:29:13.303968","MEAN_MOTION":15.80957253,"ECCENTRICITY":0.00011432,"INCLINATION":53.1584,"RA_OF_ASC_NODE":192.1072,"ARG_OF_PERICENTER":112.6658,"MEAN_ANOMALY":247.4486,"EPHEMERIS_TYPE":0,"CLASSIFICATION_TYPE":"U","NORAD_CAT_ID":67857,"ELEMENT_SET_NO":999,"REV_AT_EPOCH":454,"BSTAR":0.0010333954,"MEAN_MOTION_DOT":0.00209084,"MEAN_MOTION_DDOT":0},{"OBJECT_NAME":"STARLINK-36837","OBJECT_ID":"2026-034J","EPOCH":"2026-03-13T13:58:06.242016","MEAN_MOTION":15.80958369,"ECCENTRICITY":0.00015131,"INCLINATION":53.1587,"RA_OF_ASC_NODE":191.7799,"ARG_OF_PERICENTER":70.2971,"MEAN_ANOMALY":289.8215,"EPHEMERIS_TYPE":0,"CLASSIFICATION_TYPE":"U","NORAD_CAT_ID":67858,"ELEMENT_SET_NO":999,"REV_AT_EPOCH":455,"BSTAR":0.0011861706,"MEAN_MOTION_DOT":0.00241009,"MEAN_MOTION_DDOT":0},{"OBJECT_NAME":"STARLINK-36393","OBJECT_ID":"2026-034K","EPOCH":"2026-03-13T13:57:01.496448","MEAN_MOTION":15.80951892,"ECCENTRICITY":0.00014648,"INCLINATION":53.1588,"RA_OF_ASC_NODE":191.7749,"ARG_OF_PERICENTER":69.5677,"MEAN_ANOMALY":290.5503,"EPHEMERIS_TYPE":0,"CLASSIFICATION_TYPE":"U","NORAD_CAT_ID":67859,"ELEMENT_SET_NO":999,"REV_AT_EPOCH":455,"BSTAR":0.0011612873,"MEAN_MOTION_DOT":0.00235722,"MEAN_MOTION_DDOT":0},{"OBJECT_NAME":"STARLINK-35873","OBJECT_ID":"2026-034L","EPOCH":"2026-03-13T13:55:56.628192","MEAN_MOTION":15.80940889,"ECCENTRICITY":0.0001458,"INCLINATION":53.1586,"RA_OF_ASC_NODE":191.7699,"ARG_OF_PERICENTER":81.6567,"MEAN_ANOMALY":278.4621,"EPHEMERIS_TYPE":0,"CLASSIFICATION_TYPE":"U","NORAD_CAT_ID":67860,"ELEMENT_SET_NO":999,"REV_AT_EPOCH":458,"BSTAR":0.0009148086,"MEAN_MOTION_DOT":0.00184337,"MEAN_MOTION_DDOT":0},{"OBJECT_NAME":"STARLINK-36325","OBJECT_ID":"2026-034M","EPOCH":"2026-03-13T15:25:53.960160","MEAN_MOTION":15.81002686,"ECCENTRICITY":0.00015446,"INCLINATION":53.1583,"RA_OF_ASC_NODE":191.4476,"ARG_OF_PERICENTER":76.5296,"MEAN_ANOMALY":283.5899,"EPHEMERIS_TYPE":0,"CLASSIFICATION_TYPE":"U","NORAD_CAT_ID":67861,"ELEMENT_SET_NO":999,"REV_AT_EPOCH":456,"BSTAR":0.0019031582,"MEAN_MOTION_DOT":0.00394969,"MEAN_MOTION_DDOT":0},{"OBJECT_NAME":"STARLINK-36332","OBJECT_ID":"2026-034N","EPOCH":"2026-03-13T13:53:46.872672","MEAN_MOTION":15.80933578,"ECCENTRICITY":2.678e-5,"INCLINATION":53.1585,"RA_OF_ASC_NODE":191.76,"ARG_OF_PERICENTER":33.2021,"MEAN_ANOMALY":326.9018,"EPHEMERIS_TYPE":0,"CLASSIFICATION_TYPE":"U","NORAD_CAT_ID":67862,"ELEMENT_SET_NO":999,"REV_AT_EPOCH":455,"BSTAR":0.00090218275,"MEAN_MOTION_DOT":0.00181668,"MEAN_MOTION_DDOT":0},{"OBJECT_NAME":"STARLINK-36835","OBJECT_ID":"2026-034P","EPOCH":"2026-03-13T13:52:42.261888","MEAN_MOTION":15.80947756,"ECCENTRICITY":0.00012863,"INCLINATION":53.1587,"RA_OF_ASC_NODE":191.7534,"ARG_OF_PERICENTER":82.3259,"MEAN_ANOMALY":277.791,"EPHEMERIS_TYPE":0,"CLASSIFICATION_TYPE":"U","NORAD_CAT_ID":67863,"ELEMENT_SET_NO":999,"REV_AT_EPOCH":455,"BSTAR":0.0011236406,"MEAN_MOTION_DOT":0.00227803,"MEAN_MOTION_DDOT":0},{"OBJECT_NAME":"STARLINK-36831","OBJECT_ID":"2026-034Q","EPOCH":"2026-03-13T13:51:37.314144","MEAN_MOTION":15.80935944,"ECCENTRICITY":7.019e-5,"INCLINATION":53.1586,"RA_OF_ASC_NODE":191.7493,"ARG_OF_PERICENTER":67.6977,"MEAN_ANOMALY":292.412,"EPHEMERIS_TYPE":0,"CLASSIFICATION_TYPE":"U","NORAD_CAT_ID":67864,"ELEMENT_SET_NO":999,"REV_AT_EPOCH":455,"BSTAR":0.00087906619,"MEAN_MOTION_DOT":0.00176913,"MEAN_MOTION_DDOT":0},{"OBJECT_NAME":"STARLINK-36738","OBJECT_ID":"2026-034R","EPOCH":"2026-03-13T13:50:32.736192","MEAN_MOTION":15.80914979,"ECCENTRICITY":0.00012946,"INCLINATION":53.1585,"RA_OF_ASC_NODE":191.7437,"ARG_OF_PERICENTER":97.7544,"MEAN_ANOMALY":262.3626,"EPHEMERIS_TYPE":0,"CLASSIFICATION_TYPE":"U","NORAD_CAT_ID":67865,"ELEMENT_SET_NO":999,"REV_AT_EPOCH":455,"BSTAR":0.00071459698,"MEAN_MOTION_DOT":0.00142974,"MEAN_MOTION_DDOT":0}]
