STARLINK-36840          
1 67850U 26034A   26072.58801655  .00319604  00000+0  15556-2 0  9992
2 67850  53.1580 191.8214 0001461  57.2111 302.9053 15.80985451  4557
STARLINK-36348          
1 67851U 26034B   26072.58726913  .00258337  00000+0  12686-2 0  9992
2 67851  53.1586 191.8166 0001825  34.0703 326.0437 15.80958264  4559
STARLINK-36276          
1 67852U 26034C   26072.58651788  .00232808  00000+0  11470-2 0  9995
2 67852  53.1587 191.8109 0002062  34.4078 325.7078 15.80958735  4551
STARLINK-36785          
1 67853U 26034D   26072.58576598  .00254620  00000+0  12504-2 0  9996
2 67853  53.1586 191.8063 0001566  24.6405 335.4692 15.80967855  4556
STARLINK-36608          
1 67854U 26034E   26072.58501673  .00233437  00000+0  11499-2 0  9994
2 67854  53.1585 191.8011 0001281  60.1409 299.9741 15.80960900  4544
STARLINK-36838          
1 67855U 26034F   26072.58426838  .00232726  00000+0  11470-2 0  9993
2 67855  53.1586 191.7955 0001536  51.8774 308.2387 15.80950893  4558
STARLINK-36843          
1 67856U 26034G   26072.58276694  .00224561  00000+0  11079-2 0  9990
2 67856  53.1585 191.7854 0001377  61.2791 298.8371 15.80951987  4555
STARLINK-36828          
1 67857U 26034H   26072.52029287  .00209084  00000+0  10334-2 0  9995
2 67857  53.1584 192.1072 0001143 112.6658 247.4486 15.80957253  4544
STARLINK-36837          
1 67858U 26034J   26072.58201669  .00241009  00000+0  11862-2 0  9998
2 67858  53.1587 191.7799 0001513  70.2971 289.8215 15.80958369  4557
STARLINK-36393          
1 67859U 26034K   26072.58126732  .00235722  00000+0  11613-2 0  9995
2 67859  53.1588 191.7749 0001464  69.5677 290.5503 15.80951892  4556
STARLINK-35873          
1 67860U 26034L   26072.58051653  .00184337  00000+0  91481-3 0  9993
2 67860  53.1586 191.7699 0001458  81.6567 278.4621 15.80940889  4589
STARLINK-36325          
1 67861U 26034M   26072.64298565  .00394969  00000+0  19032-2 0  9991
2 67861  53.1583 191.4476 0001544  76.5296 283.5899 15.81002686  4562
STARLINK-36332          
1 67862U 26034N   26072.57901473  .00181668  00000+0  90218-3 0  9999
2 67862  53.1585 191.7600 0000267  33.2021 326.9018 15.80933578  4550
STARLINK-36835          
1 67863U 26034P   26072.57826692  .00227803  00000+0  11236-2 0  9993
2 67863  53.1587 191.7534 0001286  82.3259 277.7910 15.80947756  4556
STARLINK-36831          
1 67864U 26034Q   26072.57751521  .00176913  00000+0  87907-3 0  9996
2 67864  53.1586 191.7493 0000701  67.6977 292.4120 15.80935944  4557
STARLINK-36738          
1 67865U 26034R   26072.57676778  .00142974  00000+0  71460-3 0  9994
2 67865  53.1585 191.7437 0001294  97.7544 262.3626 15.80914979  4559
